[Satellite]
VERSION=1.1
NAME=NEOSSAT
NICKNAME=NEOSSAT
TLE1=1 39089U 13009D   20157.62544850  .00000016  00000-0  20986-4 0  9997
TLE2=2 39089  98.4683 359.7218 0010703 328.3555  31.6985 14.34508148380850
STATUS=0
